LEMUR-1                 
1 40044U 14033AL  26182.30667178  .00002333  00000+0  27219-3 0  9994
2 40044  97.7893 331.7988 0048907  33.3573 327.0707 14.85298820647569
LEMUR-2-GREENBERG       
1 42837U 17042N   26182.46099547  .00022792  00000+0  74362-3 0  9997
2 42837  97.3818   3.0237 0007383 318.3895  41.6784 15.31767963490578
LEMUR-2-ANDIS           
1 42838U 17042P   26182.45704225  .00031827  00000+0  92385-3 0  9997
2 42838  97.3675   3.2540 0007269 316.0889  43.9776 15.35419059490648
LEMUR-2-MONSON          
1 42839U 17042Q   26182.50085901  .00018799  00000+0  68086-3 0  9991
2 42839  97.4080   3.0136 0005232 307.9625  52.1142 15.28423110490356
LEMUR-2-FURIAUS         
1 42840U 17042R   26182.46469311  .00023230  00000+0  78285-3 0  9997
2 42840  97.3765   0.9501 0007090  22.2309 337.9238 15.30720188490391
LEMUR-2-PETERG          
1 42841U 17042S   26182.51518293  .00030221  00000+0  90370-3 0  9995
2 42841  97.3988   7.5736 0002739 287.9515  72.1430 15.34514058490636
LEMUR-2-DEMBITZ         
1 42842U 17042T   26182.48433285  .00018991  00000+0  64094-3 0  9993
2 42842  97.3820   4.0044 0005573 335.6169  24.4807 15.30723638490530
LEMUR-2-ZACHARY         
1 42845U 17042W   26182.51407940  .00057768  00000+0  97235-3 0  9997
2 42845  97.3580  14.4662 0002354 320.7586  39.3496 15.51531448491426
LEMUR-2-AMANDA-SVANTE   
1 48269U 21034B   26182.18021965  .00046032  00000+0  13452-2 0  9991
2 48269  97.5758 260.8415 0003647 174.0587 186.0699 15.35144577283206
LEMUR-2-SPECIAL-K       
1 48273U 21034F   26182.20257273  .00267372  00000+0  22515-2 0  9994
2 48273  97.5651 270.1180 0005392 221.8867 138.1982 15.69008068283885
LEMUR-2-EMBRIONOVIS     
1 56970U 23084AQ  26182.64800675  .00015941  00000+0  42922-3 0  9990
2 56970  97.6310 327.4063 0007520 260.3547  99.6847 15.37912342169906
LEMUR-2-DEVERILL-M-T    
1 57391U 23100F   26182.59343130  .00032178  00000+0  79407-3 0  9998
2 57391  99.4458 225.5185 0005074 355.9781   4.1417 15.40471579163468
LEMUR-2-BASS            
1 58259U 23174D   26182.53939658  .00021274  00000+0  47424-3 0  9992
2 58259  97.3852 267.4560 0008108 118.7448 241.4615 15.43575549147570
LEMUR-2-JK0903EM1407    
1 58336U 23174CJ  26182.19921462  .00037020  00000+0  60604-3 0  9995
2 58336  97.3933 273.0704 0004739  77.6135 282.5648 15.52401475147906
LEMUR-2-MJR092620       
1 58340U 23174CN  26182.21218621  .00026175  00000+0  54816-3 0  9996
2 58340  97.3982 272.5031 0006519  75.4862 284.7110 15.45395379147818
LEMUR-2-NIMBUS2000      
1 58899U 24022A   26182.50128742  .00027279  00000+0  67019-3 0  9999
2 58899  97.4088  32.6860 0009995  72.5448 287.6890 15.40582934134474
LEMUR-2-VALHALLA        
1 58900U 24022B   26182.50113819  .00018789  00000+0  47000-3 0  9995
2 58900  97.4087  32.6678 0010472  68.4779 291.7583 15.40105073134476
LEMUR-2-CAEL            
1 58903U 24022E   26182.49873911  .00019796  00000+0  47406-3 0  9991
2 58903  97.4070  33.6268 0008545  54.8616 305.3431 15.41437328134548
LEMUR-2-JOHNNYTRUONG    
1 59146U 24043BA  26181.99684803  .00045703  00000+0  53315-3 0  9991
2 59146  97.5382 334.5653 0004788 135.7400 224.4241 15.61507153130194
LEMUR-2-TOMATOKECHUP    
1 60471U 24149D   26182.17743459  .00014921  00000+0  42326-3 0  9993
2 60471  97.3801 264.2617 0002608 148.4852 211.6549 15.36321245104313
LEMUR-2-STELLA          
1 60533U 24149BT  26182.17847706  .00016239  00000+0  94556-3 0  9998
2 60533  97.6740 264.6964 0001118  98.1994 261.9363 15.12103283102616
LEMUR-2-MARHISYAM       
1 60536U 24149BW  26182.23015870  .00013332  00000+0  78953-3 0  9991
2 60536  97.6887 265.2120 0003204  92.2550 267.9047 15.11533605102601
LEMUR-2-AHMED-ASRAR     
1 60576U 24149DN  26182.18451582  .00017036  00000+0  96663-3 0  9996
2 60576  97.7011 267.3131 0000635 337.6809  22.4393 15.13024997102685
LEMUR-2-LLOYD           
1 60577U 24149DP  26182.22937248  .00014613  00000+0  91408-3 0  9990
2 60577  97.6753 263.3674 0005143 105.2843 254.8955 15.09512509102515
LEMUR-2-SQUIRRELCOMM    
1 60578U 24149DQ  26182.19706122  .00007047  00000+0  47065-3 0  9995
2 60578  97.6709 263.0647 0005350  20.0284 340.1153 15.07307833102516
LEMUR-2-SIERRINI        
1 60579U 24149DR  26182.19030253  .00015792  00000+0  94149-3 0  9992
2 60579  97.6843 264.8460 0006360 127.6294 232.5514 15.11240535102576
LEMUR-2-WILSON          
1 62694U 25009CP  26182.21564283  .00002781  00000+0  25808-3 0  9996
2 62694  97.7022 260.4341 0003014  18.0759 342.0568 14.95224005 79459
LEMUR-2-STAR-FOX        
1 62696U 25009CR  26182.47694598  .00008900  00000+0  67099-3 0  9996
2 62696  97.6950 263.9837 0004118  82.7112 277.4581 15.02686743 79709
LEMUR-2-ARIANNA         
1 62699U 25009CU  26182.20904859  .00009869  00000+0  74355-3 0  9992
2 62699  97.6892 263.4812 0004460  87.7557 272.4179 15.02681022 79661
LEMUR-2-ALISIA          
1 62706U 25009DB  26182.18432764  .00011559  00000+0  86327-3 0  9990
2 62706  97.6943 264.2576 0003027 173.4262 186.7003 15.02973118102263
