OBJECT_NAME,OBJECT_ID,EPOCH,MEAN_MOTION,ECCENTRICITY,INCLINATION,RA_OF_ASC_NODE,ARG_OF_PERICENTER,MEAN_ANOMALY,EPHEMERIS_TYPE,CLASSIFICATION_TYPE,NORAD_CAT_ID,ELEMENT_SET_NO,REV_AT_EPOCH,BSTAR,MEAN_MOTION_DOT,MEAN_MOTION_DDOT
LEMUR-1,2014-033AL,2026-07-01T07:21:36.441792,14.85298820,.00489077,97.7893,331.7988,33.3573,327.0707,0,U,40044,999,64756,.27218864E-3,.2333E-4,0
LEMUR-2-GREENBERG,2017-042N,2026-07-01T11:03:50.008608,15.31767963,.00073837,97.3818,3.0237,318.3895,41.6784,0,U,42837,999,49057,.74361917E-3,.22792E-3,0
LEMUR-2-ANDIS,2017-042P,2026-07-01T10:58:08.450400,15.35419059,.00072692,97.3675,3.2540,316.0889,43.9776,0,U,42838,999,49064,.92385378E-3,.31827E-3,0
LEMUR-2-MONSON,2017-042Q,2026-07-01T12:01:14.218464,15.28423110,.00052321,97.4080,3.0136,307.9625,52.1142,0,U,42839,999,49035,.68085669E-3,.18799E-3,0
LEMUR-2-FURIAUS,2017-042R,2026-07-01T11:09:09.484704,15.30720188,.000709,97.3765,0.9501,22.2309,337.9238,0,U,42840,999,49039,.78284768E-3,.2323E-3,0
LEMUR-2-PETERG,2017-042S,2026-07-01T12:21:51.805152,15.34514058,.00027398,97.3988,7.5736,287.9515,72.1430,0,U,42841,999,49063,.90369627E-3,.30221E-3,0
LEMUR-2-DEMBITZ,2017-042T,2026-07-01T11:37:26.358240,15.30723638,.0005573,97.3820,4.0044,335.6169,24.4807,0,U,42842,999,49053,.64093969E-3,.18991E-3,0
LEMUR-2-ZACHARY,2017-042W,2026-07-01T12:20:16.460160,15.51531448,.00023549,97.3580,14.4662,320.7586,39.3496,0,U,42845,999,49142,.97235372E-3,.57768E-3,0
LEMUR-2-AMANDA-SVANTE,2021-034B,2026-07-01T04:19:30.977760,15.35144577,.0003647,97.5758,260.8415,174.0587,186.0699,0,U,48269,999,28320,.13452E-2,.46032E-3,0
LEMUR-2-SPECIAL-K,2021-034F,2026-07-01T04:51:42.283872,15.69008068,.0005392,97.5651,270.1180,221.8867,138.1982,0,U,48273,999,28388,.22515E-2,.267372E-2,0
LEMUR-2-EMBRIONOVIS,2023-084AQ,2026-07-01T15:33:07.783200,15.37912342,.00075209,97.6310,327.4063,260.3547,99.6847,0,U,56970,999,16990,.42922161E-3,.15941E-3,0
LEMUR-2-DEVERILL-M-T,2023-100F,2026-07-01T14:14:32.464320,15.40471579,.00050747,99.4458,225.5185,355.9781,4.1417,0,U,57391,999,16346,.79407498E-3,.32178E-3,0
LEMUR-2-BASS,2023-174D,2026-07-01T12:56:43.864512,15.43575549,.00081082,97.3852,267.4560,118.7448,241.4615,0,U,58259,999,14757,.47423798E-3,.21274E-3,0
LEMUR-2-JK0903EM1407,2023-174CJ,2026-07-01T04:46:52.143168,15.52401475,.0004739,97.3933,273.0704,77.6135,282.5648,0,U,58336,999,14790,.60604E-3,.3702E-3,0
LEMUR-2-MJR092620,2023-174CN,2026-07-01T05:05:32.888544,15.45395379,.00065198,97.3982,272.5031,75.4862,284.7110,0,U,58340,999,14781,.54816127E-3,.26175E-3,0
LEMUR-2-NIMBUS2000,2024-022A,2026-07-01T12:01:51.233088,15.40582934,.00099955,97.4088,32.6860,72.5448,287.6890,0,U,58899,999,13447,.67019251E-3,.27279E-3,0
LEMUR-2-VALHALLA,2024-022B,2026-07-01T12:01:38.339616,15.40105073,.00104723,97.4087,32.6678,68.4779,291.7583,0,U,58900,999,13447,.46999745E-3,.18789E-3,0
LEMUR-2-CAEL,2024-022E,2026-07-01T11:58:11.059104,15.41437328,.00085459,97.4070,33.6268,54.8616,305.3431,0,U,58903,999,13454,.47405932E-3,.19796E-3,0
LEMUR-2-JOHNNYTRUONG,2024-043BA,2026-06-30T23:55:27.669792,15.61507153,.00047886,97.5382,334.5653,135.7400,224.4241,0,U,59146,999,13019,.53314838E-3,.45703E-3,0
LEMUR-2-TOMATOKECHUP,2024-149D,2026-07-01T04:15:30.348576,15.36321245,.0002608,97.3801,264.2617,148.4852,211.6549,0,U,60471,999,10431,.42326E-3,.14921E-3,0
LEMUR-2-STELLA,2024-149BT,2026-07-01T04:17:00.417984,15.12103283,.0001118,97.6740,264.6964,98.1994,261.9363,0,U,60533,999,10261,.94556E-3,.16239E-3,0
LEMUR-2-MARHISYAM,2024-149BW,2026-07-01T05:31:25.711680,15.11533605,.00032047,97.6887,265.2120,92.2550,267.9047,0,U,60536,999,10260,.78952737E-3,.13332E-3,0
LEMUR-2-AHMED-ASRAR,2024-149DN,2026-07-01T04:25:42.166848,15.13024997,.0000635,97.7011,267.3131,337.6809,22.4393,0,U,60576,999,10268,.96663E-3,.17036E-3,0
LEMUR-2-LLOYD,2024-149DP,2026-07-01T05:30:17.782272,15.09512509,.00051431,97.6753,263.3674,105.2843,254.8955,0,U,60577,999,10251,.91408479E-3,.14613E-3,0
LEMUR-2-SQUIRRELCOMM,2024-149DQ,2026-07-01T04:43:46.089408,15.07307833,.000535,97.6709,263.0647,20.0284,340.1153,0,U,60578,999,10251,.47065E-3,.7047E-4,0
LEMUR-2-SIERRINI,2024-149DR,2026-07-01T04:34:02.138592,15.11240535,.000636,97.6843,264.8460,127.6294,232.5514,0,U,60579,999,10257,.94149E-3,.15792E-3,0
LEMUR-2-WILSON,2025-009CP,2026-07-01T05:10:31.540512,14.95224005,.00030144,97.7022,260.4341,18.0759,342.0568,0,U,62694,999,7945,.25807644E-3,.2781E-4,0
LEMUR-2-STAR-FOX,2025-009CR,2026-07-01T11:26:48.132672,15.02686743,.00041189,97.6950,263.9837,82.7112,277.4581,0,U,62696,999,7970,.67098532E-3,.89E-4,0
LEMUR-2-ARIANNA,2025-009CU,2026-07-01T05:01:01.798176,15.02681022,.00044604,97.6892,263.4812,87.7557,272.4179,0,U,62699,999,7966,.74354798E-3,.9869E-4,0
LEMUR-2-ALISIA,2025-009DB,2026-07-01T04:25:25.908096,15.02973118,.0003027,97.6943,264.2576,173.4262,186.7003,0,U,62706,999,10226,.86327E-3,.11559E-3,0
